{"type":"FeatureCollection","features":[{"type":"Feature","properties":{"CODICE_CAN":"0098","NOME_COMPL":"Vaso GOZZOLINA E RIALE","COMUNI":"Castiglione delle Stiviere, Medole, Castel Goffredo, Ceresara, Piubega, Gazoldo degli Ippoliti"},"geometry":{"type":"MultiLineString","coordinates":[[[10.4576507828043,45.3825178691292],[10.4601603222043,45.3797605495937],[10.4619252579454,45.3781282841828],[10.4676792561465,45.3750796271098],[10.478025548334,45.3699541457768],[10.4866600131188,45.3657567448215],[10.4847589724999,45.3610440809413],[10.4827026978532,45.3553553534364],[10.4832254209397,45.353114949894],[10.483664084201,45.3524519348966],[10.483725067738,45.3520674231185],[10.4849535112155,45.3509390176274],[10.4865276240603,45.3491872734426],[10.4856243451817,45.3483682254476],[10.4838864074362,45.3456472158215],[10.4825190004923,45.3446932774236],[10.4815252969863,45.3434986980199],[10.4817271448701,45.3432745920922],[10.4844763306329,45.3418599598257],[10.4877032363127,45.3407033982777],[10.4885449903446,45.3397707563661],[10.4897751133761,45.3391617046885],[10.4920509201499,45.3376744686466],[10.4919035017313,45.3370762310448],[10.4919729075262,45.3366081835872],[10.4918054588576,45.3361822526185],[10.4920879394046,45.3357250115941],[10.4917424828765,45.3353861825924],[10.4914228169605,45.3347818840264],[10.4906163529546,45.3343835772459],[10.4905151146261,45.3341899142583],[10.4908069426911,45.3336308227846],[10.4907893437722,45.3332254336883],[10.4898664269741,45.332829248443],[10.489959374347,45.33247890531],[10.4896835476449,45.3322721134241],[10.4898676914595,45.3315024883612],[10.4948232900921,45.3293607145077],[10.4939585449991,45.3284691671194],[10.4952783028844,45.3279262822856],[10.4949500053791,45.3275533276568],[10.4949801121091,45.3268704866636],[10.4947568015158,45.3259196803117],[10.4974070798464,45.325020242453],[10.4986692561937,45.3238931178742],[10.4993844334488,45.3234428946066],[10.4990630366844,45.3231037711711],[10.5004157164452,45.3222212899136],[10.5006838457289,45.3219083336796],[10.5027770831559,45.3214163687377],[10.5017555355238,45.3200479575249],[10.502465493334,45.3197368692128],[10.5015701681493,45.3190440770313],[10.5019989788828,45.3186772110804],[10.5020293507509,45.3184836809182],[10.5035023219867,45.3179206700097],[10.5029343986013,45.3165726548977],[10.5024407583353,45.3141024286682],[10.5005775983098,45.3110076266928],[10.4996031514734,45.3083739787342],[10.4996138829001,45.3082690463181],[10.5014389858759,45.3078544880981],[10.5009439603256,45.3059919585667],[10.5008810335488,45.3046189908829],[10.500346951549,45.3022853378725],[10.5004061735831,45.3021121994655],[10.4997121471757,45.3012486115418],[10.5054017754809,45.300174519359],[10.5052726980652,45.298919600715],[10.5044558542427,45.295800009432],[10.5043220328244,45.2957160323898],[10.5042540266721,45.294089724844],[10.5034033406774,45.2920336618806],[10.5036523831765,45.2917541143758],[10.5036603347921,45.2915444261202],[10.503400808081,45.2893977688902],[10.5113819052198,45.2872889599796],[10.5116065642583,45.284570919251],[10.5112508248442,45.2816062662006],[10.5120301709061,45.2766588102497],[10.5178705840609,45.2753071147202],[10.5222446278095,45.2733817078174],[10.5228679557689,45.2732424802387],[10.5267110185952,45.2693900814623],[10.5296861755954,45.2669567293637],[10.5278967114289,45.2655016728702],[10.526816186468,45.2642586089513],[10.5291338313652,45.2621306505591],[10.525852724406,45.2581339714289],[10.5185978298283,45.2501139707715],[10.5182551216979,45.2495897991782],[10.5187122556609,45.248904952451],[10.5261128811483,45.2452094703579],[10.5245130037052,45.2437531828786],[10.5344348077559,45.2382887329027],[10.5359841542137,45.2376303931778],[10.5372187155457,45.2368361505535],[10.5382571247166,45.236161915105],[10.5399240049942,45.2347385408735],[10.5414853409079,45.2337922414149],[10.5419628423491,45.2328978291941],[10.5427358736351,45.23219749792],[10.5433714047121,45.2319259827304],[10.5440303557034,45.2319367350681],[10.544434742548,45.2316413423014],[10.545330846445,45.2307480872225],[10.5448704018206,45.23036134098],[10.5485566284686,45.2279696183309],[10.5512037582374,45.2260276598831],[10.5538692976962,45.2248619652839],[10.5539616518901,45.2246973726641],[10.5538852112308,45.2244371601212],[10.5522735052523,45.2225707474939],[10.551649242164,45.2220167656777],[10.5519466867486,45.2218129195241],[10.5510440340458,45.2207507674842],[10.5557535828647,45.2183825440024],[10.5555751217299,45.2181953501246],[10.5556422796208,45.2181152675903],[10.5797270471018,45.2068055714882],[10.5857085331076,45.2042129241705],[10.5871149709799,45.2034464313919],[10.5888691348808,45.2027683061768],[10.5924581238174,45.2009647087657],[10.59294351548,45.2006985031423],[10.597362680251,45.1966993114589]],[[10.4860071402639,45.3927944307882],[10.4859444301236,45.3931246392124],[10.4857556722544,45.3931270951955],[10.4852982411293,45.3930302404422],[10.4849774808856,45.3925808667088],[10.4849601667986,45.3904464068591],[10.4851190594073,45.3902871122761],[10.4841129844463,45.3872856762327]],[[10.5222821882582,45.3973953376437],[10.5214088313152,45.3961289295977],[10.5196655062941,45.3943908517432],[10.5192338243284,45.39411046449],[10.5183375435748,45.3938362528979],[10.5178134477754,45.3938114263789],[10.5166127382614,45.3944695780106],[10.5161628444763,45.3948570568115],[10.5153574163304,45.3959550373812],[10.5150539057902,45.3960798741678],[10.5139724771907,45.3961387227038],[10.5123715402612,45.3960073292237],[10.5109153277282,45.3963953911999],[10.5102053508531,45.396169518209],[10.5084797956862,45.3950859523812],[10.5080537466346,45.3950152769323],[10.5054882899685,45.3957739823714],[10.5041870011653,45.3958801444935],[10.5036063121392,45.3954236242491],[10.5012183622719,45.3942304239702],[10.5002336837204,45.392976398344],[10.499985905058,45.392974364029],[10.4994601033644,45.3932457224378],[10.4981491395877,45.3944847067276],[10.4976634507569,45.3945704125738],[10.4955636370925,45.3936564662848],[10.49435159195,45.3940954584045],[10.493600598374,45.3940841247044],[10.4931347613221,45.3939262525944],[10.4913909040849,45.3939477135866],[10.4906475887372,45.3938714685293],[10.4882106052816,45.3929049288226],[10.486916820257,45.3929482235012],[10.4860072885507,45.3927947754103],[10.4860071402639,45.3927944307882],[10.4856074725278,45.3918611607025],[10.4858011622353,45.391733025241],[10.4859882849943,45.3909967270399],[10.4855300116674,45.3890853873099],[10.4850925266596,45.3883241554162],[10.4848726985603,45.3874543106524],[10.4841129844463,45.3872856762327],[10.4835987428428,45.3850246502819],[10.4830436436786,45.3835310727807],[10.4832746576514,45.3817826660401],[10.4832165446288,45.3811751720129],[10.4833956369099,45.3808488886314],[10.4840497300503,45.380390817225],[10.4839182510152,45.3787727334383],[10.4840370367342,45.3770390041748],[10.4837292018516,45.3747752933853],[10.4832290650302,45.373406617005],[10.4826462514744,45.3710274660187],[10.4813822752444,45.3683341169875]]]}},{"type":"Feature","properties":{"CODICE_CAN":"0096","NOME_COMPL":"Cavo OSONE VECCHIO","COMUNI":"Castel Goffredo, Ceresara, Gazoldo degli Ippoliti, Rodigo, Castellucchio, Curtatone"},"geometry":{"type":"MultiLineString","coordinates":[[[10.5198328191701,45.2826433194929],[10.5247377162736,45.2818303351029],[10.5251027708367,45.281423523797],[10.5260989936583,45.2810012123837],[10.5243793184486,45.2773243171756],[10.524901146291,45.2753982248109],[10.5303947979785,45.271842324539],[10.5350434311705,45.2690689682231],[10.5360319019746,45.2674250650752],[10.537385818568,45.2662760318391],[10.5384921331339,45.2644904583525],[10.5389058866785,45.2642470239634],[10.5405306437335,45.263802473519],[10.5411879565881,45.2633021594134],[10.5414005637629,45.2629297235573],[10.5407111566767,45.2609856524138],[10.5407117261566,45.2605306520299],[10.5420630333036,45.2595205367157],[10.5430602916388,45.2589974793219],[10.5437887617047,45.2587783416081],[10.5449553386024,45.2590355661015],[10.5457229341836,45.2588340868839],[10.5464663057793,45.2577411440902],[10.5476595484375,45.2563998627066],[10.548308620854,45.2551649862158],[10.5481840986562,45.2528721616736],[10.5483900601755,45.2508064408839],[10.5468041548649,45.2491036349205],[10.5470515708353,45.2465520211176],[10.5451548643623,45.2442862049574],[10.5450103650755,45.2437357081301],[10.5454147056777,45.2433064652779],[10.5458379809616,45.2431758751094],[10.5463918148064,45.2431515197057],[10.5481029989845,45.2435542382371],[10.5486303963039,45.2434496267763],[10.5490022158917,45.2431908329114],[10.5492936526262,45.2427964055167],[10.5494753609198,45.2417335112716],[10.5500933647051,45.2407054240008],[10.551722557073,45.2400348578561],[10.5516373196722,45.2396608838153],[10.5507886748746,45.2381964276536],[10.5509097262547,45.23795934202],[10.5515373977598,45.2376890880078],[10.5535988842895,45.2362997294353],[10.5544891907837,45.2360765012822],[10.5565350104189,45.2338355534016],[10.5575177598386,45.2336037617601],[10.5586383698204,45.2335156795754],[10.5599108419047,45.2331415957267],[10.5627520860546,45.2317414201084],[10.5630173772356,45.231271876966],[10.5635053424781,45.229343303214],[10.5637762066433,45.229077519138],[10.5649186183235,45.2286614791784],[10.5683414861899,45.2288609876487],[10.570381470415,45.2284740161957],[10.5743444132233,45.2243181682147],[10.5769032588419,45.2226343769236],[10.5770394297282,45.2222868439964],[10.5763038844616,45.2189867047561],[10.5762340184462,45.2179905923565],[10.5788039045597,45.2170577161721],[10.5823358341343,45.217753294686],[10.5844053383066,45.2189543150849],[10.5850197476699,45.2190654336189],[10.5910713556264,45.2175321593491],[10.5914029286296,45.2172815913818],[10.5940549879833,45.21206643825],[10.5925329727215,45.2097298665634],[10.5925625050481,45.2094890275128],[10.5940401913827,45.2085265943628],[10.5947616457943,45.2076799145077],[10.5973459579304,45.2057645465551],[10.5952070856265,45.2032741758854],[10.5953232623695,45.202959626203],[10.597377709043,45.201309620082],[10.5976632023891,45.2006716794951],[10.5971691413273,45.1939083266747],[10.5952665664168,45.1914625868715],[10.5951561064537,45.1910449957238],[10.5952678213045,45.1905352345355],[10.5956469425266,45.1900496789125],[10.596499883556,45.1896395784992],[10.6026919957605,45.1881404360002],[10.6037031496689,45.186313031133],[10.6049936204883,45.1835683533333],[10.606984653224,45.1817485470539],[10.6070992671568,45.1811706232494],[10.6066830329597,45.1797591348781],[10.6043831497878,45.1767314971198],[10.6042015434809,45.1762886860203],[10.6042938620122,45.1758952035077],[10.6069581549634,45.1723262720541],[10.6078131846341,45.171551591277],[10.6083426163704,45.17133142277],[10.6117965654176,45.170684460107],[10.6125675791376,45.1700354387989],[10.6126712993902,45.169382546146],[10.6125990373228,45.1673229290969],[10.6138582373125,45.1654971022946],[10.6129948448702,45.1607100366247],[10.6154106650528,45.1566223186375],[10.622076051407,45.155790258919],[10.6272430385258,45.1526564697108],[10.6284291355389,45.1521454078258],[10.6309276787417,45.1521184103474],[10.6336246743865,45.1530334697014],[10.6373090297891,45.1531280665792],[10.6427975489038,45.1516274548391],[10.645352834046,45.1505493085824],[10.6475342118463,45.1509618420306],[10.6477657338255,45.1509370653098],[10.6480893999449,45.1506565504617]],[[10.6762718437805,45.1518368132198],[10.6764726281133,45.1520724462433],[10.6767185702143,45.1521035120576],[10.6802758899553,45.1522523363341],[10.6815303072291,45.1529135378951],[10.6831407117019,45.15318109376],[10.6835085168239,45.1533559914316],[10.6836399798042,45.1539921123107],[10.6818560313773,45.1601493229925],[10.6805399547796,45.1615627236315],[10.6805775100988,45.1618395875654],[10.6810894803951,45.1624146246165],[10.6817057810447,45.1623708707911],[10.6830090190551,45.1626845649271],[10.6841166892638,45.1626821011038],[10.6886962416968,45.1614076875942],[10.6895509705798,45.1614713312699],[10.6904112888063,45.162055041101],[10.6910237302778,45.1622124205757],[10.691821672991,45.1631715568389],[10.6923677975253,45.1634062018871],[10.6931035679474,45.1634292156781]]]}},{"type":"Feature","properties":{"CODICE_CAN":"0099","NOME_COMPL":"Canale GOLDONE","COMUNI":"Goito, Rodigo"},"geometry":{"type":"LineString","coordinates":[[10.6437598443541,45.2797224981288],[10.6436044639291,45.2795637454266],[10.6438180157965,45.2794290826432],[10.6426587103207,45.2785465940624],[10.6429033115244,45.2784114862876],[10.6428528271549,45.2777517875169],[10.6413773772963,45.2775545539042],[10.6408943951663,45.2758957167792],[10.6383058635493,45.272413050271],[10.6379860241796,45.2723032069566],[10.6383097242549,45.2710066332683],[10.6382695027778,45.2705064481543],[10.637842382446,45.2695585034504],[10.6367593767974,45.2682861559217],[10.6357369052082,45.2659657444362],[10.6357726463181,45.2658719756212],[10.6364554681968,45.2657876004153],[10.636331250834,45.2639597976088],[10.637481638628,45.2570067881353],[10.6357251820007,45.253495455169],[10.6362309564749,45.25326974092],[10.6388532548375,45.252998744955],[10.6400736258606,45.2522917719918],[10.6407353779131,45.2516299645633],[10.6402469106534,45.2509622762131],[10.6397401126186,45.2505172738336],[10.6390636606769,45.2491592304521],[10.6383849329049,45.2468503880861],[10.6383950114465,45.2447147199139],[10.6416304692645,45.2401898762296],[10.643355899826,45.2373769670309],[10.6433161295354,45.2358947599187],[10.6436716531957,45.2335588381982],[10.644258875986,45.233189851281],[10.6472891965364,45.2319336089787],[10.6476044397954,45.2306600778972],[10.6467906831962,45.2278752453513],[10.6471577396703,45.2256214650061],[10.648382065392,45.2246193818157],[10.6511259735844,45.2229782092242],[10.6519604624676,45.2223281651222],[10.654339994484,45.2197983789148],[10.6556895104721,45.2181495998812],[10.6596036455103,45.2145248515037],[10.659609347689,45.2102817150092],[10.6627766886433,45.2078925657211],[10.6651430842891,45.2063082033507],[10.6661515633669,45.2052593105748],[10.666964217785,45.204850699877],[10.6692419935191,45.2049884591544],[10.670965726269,45.2046494999624],[10.671938891146,45.2047848547268],[10.672045384323,45.2046125200658],[10.6720461369478,45.203616515534],[10.6723381685128,45.2029510807241],[10.6726342800621,45.2027204178587],[10.6729567050493,45.2021900089678],[10.6735956091086,45.2019143885974],[10.6740288385455,45.2014685178282],[10.6757608626397,45.2006742329852],[10.6765735838332,45.2000791278604],[10.6791256869258,45.1991842780808],[10.6807913273207,45.1992416002863],[10.6825542684261,45.1995082826312],[10.6837971441418,45.1991681028451],[10.6852179534924,45.1983465036228],[10.6856370419993,45.1978837868292],[10.6864955557773,45.19762829555],[10.6869821798675,45.1972823365009],[10.6880840728526,45.1971112109719],[10.6891555182359,45.1971470659901],[10.6898075438897,45.1968973588483]]}},{"type":"Feature","properties":{"CODICE_CAN":"1041","NOME_COMPL":"Scolo CAVATA","COMUNI":"Redondesco, Marcaria, Aquanegra sul Chiese"},"geometry":{"type":"LineString","coordinates":[[10.53193194561,45.1545471891698],[10.5314748540541,45.1536596036478],[10.5309649377496,45.1529956424901],[10.5188042455981,45.13969956045],[10.5161122584068,45.1369312272909],[10.5161557567319,45.1367158596538],[10.515872688492,45.1365570738865],[10.5125581469021,45.1328956360841]]}},{"type":"Feature","properties":{"CODICE_CAN":"0100","NOME_COMPL":"Fosso RE e Vaso BIRBESI","COMUNI":"Cavriana, Guidizzolo, Ceresara, Goito"},"geometry":{"type":"MultiLineString","coordinates":[[[10.5657362642111,45.3112433262691],[10.5717907025789,45.310217225906],[10.5758085570193,45.311364965437],[10.5761247037328,45.3116352521949],[10.5768034980658,45.3114803776094],[10.5781421172586,45.311416405182],[10.58294424111,45.3118387088784],[10.5832120604083,45.3105019299652],[10.5815085942495,45.3058638114732],[10.5813806586849,45.3051836252599],[10.5815073917048,45.2994657981103],[10.5814234276154,45.2924997517717],[10.5816845193314,45.2913015975242],[10.5817207819708,45.2904520245619],[10.5830565726468,45.2893429711087],[10.5832097402955,45.2886936460388],[10.5841403597039,45.2875969143876],[10.5848525144437,45.2873909921962],[10.5849391112418,45.2862614086955]],[[10.5836496161949,45.2936752510429],[10.5814803690779,45.2944948119741]],[[10.5825377090934,45.3138474026972],[10.5825211880512,45.3132253496946],[10.5830007815828,45.3126811031235],[10.5828074022601,45.3125843914136],[10.58294424111,45.3118387088784]],[[10.5836496161949,45.2936752510429],[10.5834424093764,45.2929448449708],[10.5836959525027,45.2920368638942],[10.5833076483893,45.290333254702],[10.5835289277926,45.2902706589477],[10.5835908088594,45.2899934395147],[10.5831028885081,45.289343084576]],[[10.5836496161949,45.2936752510429],[10.5838906423476,45.2937370912938],[10.5841782343757,45.2943342604824],[10.5848287957034,45.2941750456232],[10.5865240021061,45.2960925918467],[10.5869029163579,45.2961808110903],[10.5871762387501,45.2964820752317],[10.5882410554297,45.2980393303046],[10.5887897126321,45.2982137479467],[10.5891056935357,45.2985439358127],[10.5891281570512,45.2988486881013],[10.5896465426016,45.2993113667664],[10.5897236612388,45.299575994294],[10.589560989808,45.2999915742402],[10.589805690479,45.3005146486222],[10.5897616548104,45.3010589666312],[10.5899186630668,45.3012878133828],[10.588301928047,45.3020370638816],[10.5875672942283,45.3037440726018],[10.5872546439751,45.3039083348336],[10.5874773333011,45.3043923568437],[10.5875013403393,45.305002152533],[10.5890814105461,45.3079721763579],[10.5897696424408,45.3077804008164],[10.5902045996109,45.307945822728],[10.5900399155789,45.3082634755462],[10.5901207278616,45.308929418866],[10.5909204728979,45.3108245694058],[10.5920238071261,45.3106320473568],[10.5930763957932,45.3124846466305],[10.5926538855279,45.3134574015553],[10.5926554639016,45.3137624438255],[10.5928262100415,45.3138830703518],[10.5932067513215,45.3150192885904],[10.5915966095567,45.3156691080276],[10.5913099792951,45.3158694821301],[10.5913393035439,45.3161883202642],[10.5911937656168,45.3162951406049],[10.5913238082346,45.3170087986564],[10.5921421569685,45.3193678071035],[10.5922341845983,45.3190924025442],[10.5914883903851,45.3170522070969],[10.5913393035439,45.3161883202642]],[[10.5838188721072,45.2879597894679],[10.5835418281548,45.2874915566824],[10.5838961172017,45.2865833064573],[10.584231322209,45.2865480347375],[10.5861393066933,45.2857050330523],[10.5871042626465,45.2853923835149],[10.5883340681981,45.2843503127592],[10.5904813596128,45.2832148685836],[10.5907244541836,45.2830194459355],[10.5906374653266,45.2828678148245],[10.592394773078,45.2818461795118],[10.5931288214459,45.2812395813528],[10.5934317812609,45.2808488030541],[10.5928245305475,45.2794438101974],[10.592874250671,45.2792769810847],[10.594956197878,45.2770073827282],[10.5946787456672,45.2745402220507],[10.5971265534826,45.2718049182413],[10.6013729665624,45.2692562324936],[10.6020345063259,45.2697508483025],[10.6048791443914,45.2671832314792],[10.6003475489102,45.2635374620891],[10.6022043584005,45.2621287370668],[10.6018752580299,45.2619381344261],[10.6032243799981,45.2610225664186],[10.6042258867411,45.2605189919626],[10.6062303753913,45.2590899978713],[10.6084942115404,45.2581605060447],[10.6086262758768,45.2582713881601],[10.6116640703933,45.2564667093646],[10.6123016792548,45.2571094389457],[10.6146562802913,45.2561395157847],[10.618693461989,45.2530092502749],[10.6201939604348,45.2526383001252],[10.6213030351378,45.251753161476],[10.621567107829,45.251280621384],[10.6223783406787,45.2484137434152],[10.6226913635021,45.2479660747759],[10.6228233511348,45.2451977499151],[10.6230361125347,45.2448068183174],[10.6234659856595,45.2446800123412],[10.6245525912046,45.243842287378],[10.6259238220277,45.2424309798449],[10.6278640610752,45.2408776284173],[10.6293799968111,45.2394666765842],[10.6307033542863,45.2387344361084],[10.6319770605148,45.2383213322771],[10.6327185650375,45.237031354908],[10.6347219507671,45.2361933245206],[10.6348424727307,45.2355310802405],[10.6407744791104,45.2344822467514],[10.6434067273564,45.2337669982589],[10.6436716531957,45.2335588381982]],[[10.5921421569684,45.3193678071035],[10.5925997597312,45.3212274511422],[10.5925192784685,45.323580518389],[10.5927328059469,45.3289555153464],[10.591236828946,45.3289640864755],[10.5912920525383,45.3336721181762],[10.5911033618427,45.3336599884323],[10.5910092963085,45.3342861839752],[10.589620230932,45.3342563411071],[10.5896035692306,45.3350315216412],[10.5900003837775,45.3357492778924],[10.5896042149984,45.3375457890437],[10.5900163527135,45.3375646482012],[10.5895588108186,45.339536684646],[10.5907626040205,45.3396724377738],[10.5894258834744,45.3415164980349],[10.5895121200397,45.3426026833669],[10.5879002222236,45.3425956046711],[10.5873892320577,45.3429102334429],[10.5870545424652,45.3434167597554],[10.5874277746073,45.3444128489093],[10.5877104496514,45.3468821729157],[10.5879648397162,45.3476320503546],[10.5890474247046,45.3491158760257],[10.5913633039525,45.3508940510847],[10.5923898936689,45.3512136741392],[10.5922605793508,45.3515578531324],[10.5922965967914,45.3520425501927],[10.5926967955503,45.3522820845588],[10.5934791468108,45.3523496558328],[10.5940601378717,45.3530255187603],[10.5944758038582,45.3532644618788],[10.5961763438659,45.3535111170953],[10.5964408211818,45.3538373294812],[10.5966286011115,45.3542460214613],[10.596604971291,45.3544862878885],[10.5968012897041,45.3547663237134],[10.5996522123184,45.3552592841586],[10.6007015158349,45.3565238863284],[10.5991518525527,45.3576169499011],[10.5990633864103,45.3578323725697],[10.5990859088512,45.3580689397984],[10.599720264111,45.3586388482811],[10.5997582142061,45.3589021268987],[10.5994825185281,45.359184578592],[10.5993749966814,45.359550254139],[10.5994211290572,45.3604397137633],[10.5986527858313,45.3614201662969],[10.5984117388658,45.361972335833],[10.5987350861742,45.3630840989456],[10.5987296981318,45.3635207139604],[10.5982341164032,45.3638332340883]],[[10.5994286316654,45.3551612942356],[10.5994598310741,45.3546178727547],[10.5999637366432,45.3542115957704],[10.5997990754569,45.3537412164967]],[[10.6100286503797,45.3583803052577],[10.609425449197,45.3584266503988],[10.6095007976261,45.358791990333],[10.6079902930855,45.3589186267177]],[[10.6103229322444,45.3591260837661],[10.6098533770758,45.3579351295972],[10.6085881661526,45.358232354865]],[[10.6098533770758,45.3579351295972],[10.6103298317832,45.3577732229093],[10.6100971680672,45.3566047688773],[10.6106249090256,45.3564732799143],[10.611340470109,45.3565662923057],[10.6125217399811,45.3560065374398],[10.612719844713,45.3551242729358],[10.6130387176045,45.3546926406071],[10.6128306193207,45.3539668022731],[10.6126639804519,45.3538083959741],[10.6115580232115,45.353402461723],[10.6082147427908,45.3536526097859],[10.604193675501,45.3537764396533],[10.6035553463637,45.3539438742395],[10.6014774902406,45.3552572169731],[10.6000632306826,45.3557281830878]],[[10.6105529928091,45.3597987748465],[10.6103229322444,45.3591260837661],[10.608104847834,45.3593854183831]],[[10.6106249090256,45.3564732799143],[10.6106251521216,45.3564733430959]],[[10.6112448906639,45.3616838358613],[10.6105529928091,45.3597987748465],[10.6092117662132,45.3600746655561]],[[10.6108528484776,45.3605588934445],[10.612118447642,45.3603942669902],[10.6120613231236,45.3600002046839],[10.6114530972112,45.3584311811688],[10.6115551388272,45.3584201213154],[10.6114496392545,45.35778162596],[10.6103298317832,45.3577732229093]],[[10.6114496392545,45.35778162596],[10.6115748992772,45.3577818187286],[10.611234184132,45.3568721762587],[10.611340470109,45.3565662923057]]]}},{"type":"Feature","properties":{"CODICE_CAN":"0072","NOME_COMPL":"Canale NAVIGLIO DI CANNETO","COMUNI":"Asola, Casalromano, Canneto sull'Oglio"},"geometry":{"type":"MultiLineString","coordinates":[[[10.3547133210455,45.2309598314464],[10.3548600050797,45.2307865801444],[10.3549328212395,45.2297219680744],[10.3554579026674,45.2292508715668],[10.3557317597389,45.2287927634734],[10.3557384260682,45.2280851852043],[10.3562917556068,45.2283371507266],[10.3565110950507,45.2280943570401],[10.3561725566832,45.2273369234128],[10.3565256384287,45.2268570525826],[10.3564478812336,45.226624102498],[10.356711523742,45.2263440619207],[10.3566920943592,45.2258472072154],[10.3573048909333,45.2255724717273],[10.3572946226856,45.2253099067852],[10.3569690428245,45.2248837145831],[10.3571912672927,45.2244225669587],[10.357699237656,45.2242468980769],[10.3576810140681,45.223196191848],[10.3577966496479,45.2229352083891],[10.3580848431421,45.2228446836731],[10.358192682547,45.2226768311566],[10.3583114722192,45.2216194028372],[10.3590604701152,45.2211722089008],[10.3591397236861,45.2210049152942],[10.3587355399043,45.2207621787755],[10.358699212235,45.2205648028069],[10.3594714487293,45.219662289977],[10.3594483107814,45.2193899458249],[10.35919463319,45.2191927772892],[10.3592056124049,45.2190349026408],[10.3599516609645,45.218191392952],[10.3599615892629,45.2173060755813],[10.3605084261963,45.2168102726085],[10.3604902338356,45.2163457340672],[10.3613636856069,45.2144727489509],[10.3613268616923,45.2140019558283],[10.3618491139358,45.2133104806113],[10.361934404815,45.2128342119638],[10.3623913731514,45.2123263794678],[10.3623312597173,45.2120116020569],[10.3625583315359,45.2118772686084],[10.3625847246437,45.2116729871663],[10.3622623379078,45.211387463426],[10.3624592008669,45.2112742065222],[10.3631619449531,45.20929787557],[10.3638239070478,45.2084479796223],[10.3639739518963,45.207745618096],[10.3641730569214,45.2075571070205],[10.3649711963503,45.2050263690484],[10.3653477034428,45.204664171508],[10.3654960448156,45.2037952880564],[10.3657500921754,45.2031863778752],[10.3661152756727,45.2023928366418],[10.366371077924,45.2022732230826],[10.3663551427693,45.2017190362928],[10.366488933746,45.2013414024612],[10.3681468701871,45.1979373317396],[10.3680630228595,45.1974630836568],[10.3681925245815,45.1971148883647],[10.3688480406172,45.1965383345545],[10.3688215223988,45.1959659372207],[10.3689504133026,45.1955333481092],[10.3694380987113,45.1949517696685],[10.3692954391842,45.1940994316303],[10.369517001474,45.1936009042815],[10.3699582281929,45.193472544916],[10.37000177006,45.1929776788551],[10.3702781340302,45.1928879525302],[10.3702465998458,45.1924030302579],[10.3704692343109,45.1920878756936],[10.370590917526,45.1913559512924],[10.3709062847347,45.1908789206812],[10.3708965652382,45.190533398755],[10.3714597823451,45.1893721592281],[10.3712755496457,45.1889192137128],[10.3715815176478,45.188170003242],[10.371741851294,45.1863273473857],[10.3719920999599,45.1857435853552],[10.3719323887382,45.1852042535023],[10.3720464188957,45.1849657431431],[10.3719053610314,45.1845778511413],[10.3720215979604,45.1839327890297],[10.3722679327724,45.1837180957966],[10.3722975945431,45.1827098939308],[10.3724132461083,45.182539117245],[10.3723598298639,45.1818114005199],[10.3725677965089,45.1814955363216],[10.3724659154965,45.1812426829537],[10.3726555159761,45.1809101009001],[10.372571066635,45.1803860207674],[10.3729421154087,45.1793821820078],[10.3727880767795,45.17895210032],[10.373149501153,45.1782956170813],[10.3731013738265,45.177788038748],[10.3732711695658,45.1773794702829],[10.3731078085542,45.1770596020885],[10.3734486580847,45.1767929533283],[10.3735184047462,45.1762077320575],[10.373816455293,45.1761533295129],[10.3743996396729,45.1757567216332],[10.3738998762035,45.1753900886069],[10.3738578552153,45.1751365159873],[10.3734116831494,45.1750063757809],[10.3735838266056,45.1737000326471],[10.3738025070986,45.1733332206967],[10.3739790387577,45.172458757954],[10.3738349467622,45.1719438644243],[10.3743476179405,45.1718530003274],[10.3744516803615,45.1716992991854],[10.3741217242397,45.1709240967343],[10.3745759911245,45.1701479199305],[10.3745929525732,45.1693600696429],[10.3741563494615,45.169128186375],[10.3741244685675,45.1687982672126],[10.3742650451635,45.1686695348709],[10.3743151152686,45.1682624059682],[10.3753698487177,45.1675636867344],[10.3748030244112,45.1673926601934],[10.3746177840026,45.1671577520006],[10.3751506810784,45.1669141946878],[10.3748690253977,45.1661553568556],[10.3751041213858,45.1659746708834],[10.3750564692092,45.1652384224305],[10.3752866680815,45.1648545335581],[10.3758065528873,45.1645687832148],[10.3758036368481,45.1639505641978],[10.3764293889055,45.163587311865],[10.3760642248313,45.1633376378689],[10.3754501802223,45.1631925933996],[10.3756386843395,45.1628176746897],[10.3752035538766,45.1626450643074],[10.3756004780806,45.1622252887715],[10.3753547445439,45.1614660187996],[10.3754462065409,45.1612870628019],[10.3755861507448,45.1611329299388],[10.3761808647474,45.1609733143],[10.3760284843476,45.1606109749634],[10.3760690143737,45.160305593221],[10.3757137297839,45.1602167148204],[10.3752747483288,45.1598832351215],[10.3762730145293,45.1590835629955],[10.3760786220927,45.1584676519588],[10.3763514232858,45.1576174385706],[10.3769738388492,45.1571187152606],[10.3765778461996,45.1565814602564],[10.3765262429422,45.1559299513066],[10.3769637695155,45.1554588647468],[10.3768602857084,45.1551382823084],[10.3770151677522,45.1546113198644],[10.3774268468636,45.1543099288788],[10.3780321474843,45.1535996753319],[10.3780749077239,45.1533874277421],[10.3780340622998,45.1520519331696],[10.3777845245554,45.1516886446051],[10.3775607024166,45.1513931943944],[10.3770360599353,45.147855775546],[10.3768861054595,45.1476275812976],[10.3769172184725,45.1469201592364],[10.3766897987982,45.1462243744474],[10.3762646397605,45.1455650485312],[10.3759619307946,45.1453284833363]],[[10.377877542276,45.1518260160284],[10.3766643651043,45.151868147036],[10.3759417186013,45.1517084686047],[10.3758778170252,45.1506679537204],[10.375546576872,45.1498196734672],[10.3756642947611,45.1494642868986],[10.3754844068557,45.148346128334],[10.3768979200051,45.1476520782976]],[[10.3624592008669,45.2112742065222],[10.3626739505661,45.2111517128386],[10.3628872168139,45.2104880132244],[10.3632900896846,45.2100887978712],[10.3634804494588,45.2090309641409],[10.3639818476482,45.2084409879539],[10.3651059411863,45.2052908803793],[10.3656612099326,45.204279170908],[10.3659045473635,45.2033259689098],[10.3665507746513,45.2023155484121],[10.3669619332331,45.2008380320235],[10.3669346717719,45.2004296069195]]]}},{"type":"Feature","properties":{"CODICE_CAN":"8204","NOME_COMPL":"Fosso SCARPOLE","COMUNI":"Ceresara"},"geometry":{"type":"LineString","coordinates":[[10.5531639855667,45.2804248514396],[10.5511795465425,45.2782040846724],[10.552036671825,45.2777957852411],[10.5494675504249,45.2747295128324],[10.5500805047226,45.2744206986972],[10.5482992786633,45.2727740798485],[10.5497987653767,45.2720545368614],[10.5490160178677,45.2711791812168],[10.5546480496764,45.2688019584806],[10.5547338163402,45.2686078763601],[10.5526805105535,45.2662231939134],[10.5477525312038,45.2611221221465],[10.5477296363198,45.2609060732817],[10.5462492497234,45.2593515025039],[10.5456789672322,45.2596597192387],[10.5453037550889,45.2590036965283]]}},{"type":"Feature","properties":{"CODICE_CAN":"8040","NOME_COMPL":"Seriola FUGA DELLA GRILLA","COMUNI":"Castel Goffredo"},"geometry":{"type":"LineString","coordinates":[[10.4616311207488,45.3250336272167],[10.4614914020915,45.3248252079198],[10.4616925368952,45.324572561733],[10.4611134641028,45.320368047162],[10.4612215385897,45.320041570694],[10.4611458321455,45.3198742054717],[10.4642900866783,45.3131574322525],[10.46440291382,45.3130166594268],[10.4658587073328,45.3125242071747],[10.470748823541,45.3116656607799]]}},{"type":"Feature","properties":{"CODICE_CAN":"0079","NOME_COMPL":"Canale TARTARO FUGA","COMUNI":"Castel Goffredo, Casaloldo, Asola, Mariana Mantovana, Redondesco, Acquanegra sul Chiese"},"geometry":{"type":"MultiLineString","coordinates":[[[10.470748823541,45.3116656607799],[10.4704878593814,45.3093552107376],[10.4734722227622,45.3043304126041],[10.4730226651122,45.3001167303415],[10.4726828452614,45.2997408574902],[10.4727757136932,45.2994924285473],[10.4724142420994,45.2984575507674],[10.4723652639073,45.2978086323968],[10.4721198417701,45.2975269290018],[10.4725401331667,45.2973758440464],[10.4732242647797,45.2966906403179],[10.4747116291687,45.2962713364499],[10.4662676198543,45.2860132307272],[10.4637568281535,45.2833637011788],[10.4628079612489,45.281099006118],[10.4626194489699,45.2784901885402],[10.462272464063,45.277589606058],[10.463753775551,45.2726416640619],[10.4665570651334,45.261610994203],[10.4674522853143,45.2610214605185],[10.4674919174048,45.2607498834263],[10.4679001045879,45.2603362354042],[10.4676637469995,45.2598370201107],[10.4674019771797,45.2572988867747],[10.4671601796856,45.2569447450475],[10.4671967656575,45.2567942309558],[10.4676851109848,45.2565093053109],[10.4690983891242,45.2552196374099],[10.469879639838,45.2542491798718],[10.4702774819897,45.2532821788019],[10.4706481953438,45.2518081028223],[10.4704458090046,45.251234715265],[10.4700167003073,45.2479591010733],[10.4702541560017,45.2444911766704],[10.471024874482,45.2421025768203],[10.4723109030878,45.2392057441422],[10.4729523574493,45.2368724739682],[10.4720929209941,45.2326163618297],[10.4710599025175,45.2289363753313],[10.4713809542033,45.2288393560004],[10.4716157031291,45.2284682335912],[10.4731654271958,45.225508236169],[10.4720408783299,45.2246367545234],[10.4707633068785,45.2241138156144],[10.472687900473,45.2185618858088],[10.4724097266618,45.2173869889962],[10.4721717271513,45.2167827322135],[10.4718157860965,45.216308604638],[10.4717237381041,45.2157519220972],[10.4723673131963,45.2150179746584],[10.473562617866,45.2144703115895],[10.4734109296809,45.2142713333485],[10.4738265033147,45.2139248354996],[10.474352372225,45.2127605616972],[10.4750872674445,45.2120580106419],[10.4758868474314,45.2091682505586],[10.4761606420166,45.2072015537165],[10.4765126777332,45.206477936855],[10.4765480364611,45.2058158481243],[10.4757143918535,45.2026971088847],[10.4751061909795,45.2018806779881],[10.4751010951659,45.2010616778826],[10.4752700320374,45.2002469222063],[10.4757287954133,45.1994324590039],[10.476265645931,45.1990897075494],[10.4766380795743,45.1986419037781],[10.4781216273691,45.1979796670091],[10.4783122006171,45.1975342107898],[10.4787216678137,45.1950067216923],[10.4797002546796,45.1941652290976],[10.4799136991238,45.1934336724813],[10.4812780401864,45.1921013843957],[10.4847210350846,45.1898238708019],[10.4854708823126,45.189439467281],[10.4869141713507,45.1890844833285],[10.4868868288849,45.1880343754182],[10.4870785308284,45.1877971340866],[10.4885579100941,45.1866772331197],[10.4900712644565,45.1857779255897],[10.4906402686406,45.1856131564154],[10.4913471702617,45.1850235473443],[10.4929892240989,45.1825003943024],[10.4930442921638,45.1820169822028],[10.4933901587614,45.1817190800539],[10.4950660753645,45.1809040609337],[10.4959834260949,45.1801666071104],[10.4979918658024,45.1790433119916],[10.4996066620144,45.1770384397777],[10.5002711583862,45.1766640922388],[10.5009047572373,45.175970819261],[10.5031272565258,45.1755183842713],[10.5053640296317,45.17486737331],[10.5067751088692,45.1735059785391],[10.5070990908972,45.1730620803151],[10.5068308821666,45.172546014965],[10.5080866204625,45.1718271292902],[10.5090014995118,45.1708971448275],[10.5101677672594,45.1690649720625],[10.5103137502365,45.168652921725],[10.5104062658594,45.1683473871766],[10.5105032173186,45.1681071330465],[10.5105672264615,45.1678978116298],[10.5108493118234,45.1657777566884],[10.5114351011638,45.1636325817464],[10.5109886951205,45.1621682289679],[10.5118336782484,45.1614101637181],[10.5131144625283,45.1607032328689],[10.513458342527,45.1603414281991],[10.5136821396015,45.1598612273323],[10.5019668139969,45.1530417275722],[10.4964915904398,45.1496432613989],[10.4955746515664,45.1494993429381],[10.495494120356,45.1490884465022],[10.4957063037686,45.1485354941572],[10.4961885730621,45.1481956730278],[10.4964343806952,45.1477930809995],[10.4971594763519,45.1476943392707],[10.4968029906973,45.1472645324474],[10.4970475668765,45.1469731353685],[10.4964008935412,45.1466714777421],[10.4964606808501,45.146032464313],[10.4961816147183,45.1458756092453],[10.4958724298082,45.1451199006523],[10.4963278402257,45.1445117354178],[10.496917239404,45.1447585543094],[10.4969960047622,45.144395887831],[10.4976089195755,45.1443325586241],[10.4978433388164,45.1440486074034],[10.4978535501571,45.1438070952908],[10.4975583902956,45.1435081468985],[10.4973430498671,45.1430169321359]],[[10.5102058994341,45.1689566675074],[10.5100592177946,45.168913717832],[10.5101336715889,45.1686733725672],[10.509382284227,45.1679509354244],[10.5068286687931,45.1661055027057],[10.5102338464019,45.1625272646667],[10.5118271986444,45.1612915122401],[10.5131644822314,45.1604949822876],[10.5136108840308,45.1598202687017]],[[10.4653394323559,45.3343036170894],[10.4650941829903,45.3342210252703],[10.4651307576249,45.334068133033],[10.4681727179945,45.3300041454874],[10.4707653269361,45.324249189645],[10.4710783051232,45.323298226994],[10.4721503668732,45.3229795701296],[10.4707586390385,45.3116787305029]]]}},{"type":"Feature","properties":{"CODICE_CAN":"2059","NOME_COMPL":"SERIOLAZZA DI CASALOLDO","COMUNI":"Casaloldo"},"geometry":{"type":"MultiLineString","coordinates":[[[10.4970108533209,45.2579631496464],[10.4961712949072,45.2581963958129],[10.494576627643,45.2587339962529],[10.4941548588093,45.2582505665506],[10.4940144686715,45.2582968521735],[10.4929817347805,45.2567911944027],[10.4931113385991,45.2565438611756],[10.4926466293693,45.2554543964909],[10.493463736289,45.2552359154648],[10.4927214115956,45.2540712080656],[10.4928013266327,45.2539473444393],[10.4916466771561,45.2525371120467],[10.4921186322364,45.2522364701118],[10.4945591765619,45.2517156221437],[10.4958044641852,45.2512103772935],[10.4968496680962,45.250874428052]],[[10.4814245851967,45.272738241468],[10.4866551585462,45.2719052379204],[10.4904530556725,45.2681606748287],[10.4922535990251,45.2666450316436],[10.491751510091,45.2652245605144],[10.4940639974212,45.2649230434365],[10.4959769916789,45.2628823004548],[10.4963517873179,45.2618948378941],[10.4968558796094,45.258636191244],[10.4969424861273,45.258191838933],[10.4971415996258,45.2574256132846],[10.4966119662696,45.2557523621664],[10.4971692808354,45.2554737614903],[10.4972679793587,45.2525111048869],[10.4966410590389,45.2498418335028],[10.4975688189217,45.2491960989816],[10.4989419791677,45.2488362540863],[10.5002393542023,45.2486618716479],[10.5020394312006,45.2478894346129],[10.5056046762511,45.2473541666843],[10.5068477789375,45.247598223865],[10.5094036705732,45.2466050495461]],[[10.4967691366812,45.2497491760396],[10.4965306307838,45.2498232001421],[10.4960696499362,45.2496123230922],[10.4957410694512,45.2491876711308],[10.4957157567355,45.2487492984056],[10.4942264218844,45.2468285244835],[10.4953537001623,45.2461759343977],[10.4952929947752,45.2460641132711]],[[10.4942264218844,45.2468285244835],[10.4941533005259,45.2466940011069],[10.4952929947752,45.2460641132711],[10.4942438116699,45.2449235232592]]]}},{"type":"Feature","properties":{"CODICE_CAN":"0102","NOME_COMPL":"Scolo REDONE INFERIORE","COMUNI":"Monzambano"},"geometry":{"type":"MultiLineString","coordinates":[[[10.6340873028556,45.3728214646913],[10.6335047098665,45.3716313752528],[10.633828066768,45.3711266088774],[10.6335868417788,45.3709633466322],[10.6334399893913,45.3703224098373],[10.6335687818241,45.3701014583388],[10.634125634875,45.3697267212002],[10.634359380222,45.3691613133679]],[[10.6957975538639,45.3821452133347],[10.6949617336315,45.3819889035561],[10.6939925602188,45.3819929491348],[10.6929689186436,45.3823857953553],[10.6908427203994,45.382743242774],[10.6895507773683,45.3838715413007],[10.6875235488095,45.3843795584341],[10.6868716340816,45.3857630168448],[10.6862060296482,45.385665499164],[10.6845143437898,45.3843461766246],[10.6837451592416,45.3840058934794],[10.6823689657882,45.3840045670045],[10.6798836484208,45.3836591161011],[10.6779882198951,45.3835716745795],[10.6737771529662,45.3843038030409],[10.6731517787864,45.3845219013706],[10.6727994672101,45.3850357580311],[10.6717152659427,45.3860917395753],[10.671417313641,45.3864821650606],[10.6712333971256,45.3872992307644],[10.6708606521517,45.3877204979203],[10.668193531064,45.3890784619645],[10.6677981583648,45.3894119559685],[10.6664226884831,45.3896734318355],[10.6658277377152,45.3896668877472],[10.6639072386998,45.3885960925107],[10.662220220316,45.3882700656137],[10.6596544299492,45.3874542326422],[10.6580039765892,45.3883314293856],[10.6551277737647,45.3884491647637],[10.6540489464103,45.3876424694791],[10.6530995996471,45.3873436059189],[10.6526523910318,45.3874741133693],[10.6518899731871,45.3880480495782],[10.649729155096,45.3891298946044],[10.6478626584317,45.3887185949205],[10.646575277155,45.3888333927876],[10.6456969897022,45.3874070014142],[10.6448118508571,45.386868494109],[10.6442856338982,45.3867127392911],[10.6435719255263,45.3848009453458],[10.6435368266689,45.3837902931934],[10.6433386786978,45.3829960228167],[10.6427194690895,45.3819026034406],[10.6410268704646,45.3805462726842],[10.6400761609644,45.3801192081146],[10.6392371644201,45.3800715032413],[10.6345203691804,45.3802446061054],[10.6339512275937,45.3792897378939],[10.63324301534,45.3784603493604],[10.6339181366488,45.3759259975548],[10.6349974184954,45.3750367488902],[10.6349955586522,45.3746785027342],[10.635208745067,45.3744306279484],[10.6349987271222,45.3742007596879],[10.6337461013605,45.3739619391587],[10.6335753955119,45.3738350765653],[10.6335439738236,45.3733238913327],[10.6340873028556,45.3728214646913]],[[10.6344220003883,45.370748561247],[10.633828066768,45.3711266088774]]]}},{"type":"Feature","properties":{"CODICE_CAN":"0097","NOME_COMPL":"Seriola PIUBEGA","COMUNI":"Castiglione delle Stiviere, Medole, Castel Goffredo, Ceresara, Piubega, Gazoldo degli Ippoliti"},"geometry":{"type":"LineString","coordinates":[[10.4681525746847,45.3425589724129],[10.4836110520208,45.3411209960605],[10.4842134874396,45.3409131173646],[10.4843022084282,45.3408190821512],[10.4841081911201,45.3399856626996],[10.484046836286,45.3386075143374],[10.4853223807105,45.333925386021],[10.4875443377152,45.3315458186369],[10.4902031794901,45.3290239592649],[10.4920134859124,45.3262592303351],[10.4933598823822,45.3247495723457],[10.493704406739,45.3244455243481],[10.4955306818156,45.323632215902],[10.4974435709448,45.3221916692229],[10.4990863085226,45.321257712609],[10.5029029782513,45.3197165451683],[10.5076826116274,45.3183024203996],[10.5077592607425,45.317964422751],[10.5083414427224,45.3171492416917],[10.5090260460186,45.3166283605341],[10.5098315041744,45.3163053901325],[10.5098059032265,45.3161316494574],[10.5102824093146,45.3157502134161],[10.5101736047045,45.3153860555088],[10.5104755328113,45.3149955476205],[10.5114986963095,45.3144578694017],[10.5099596564382,45.3127597627384],[10.510324886823,45.3119220066788],[10.5103011298755,45.3117061417581],[10.5081678664246,45.3092482732899],[10.5084060494816,45.3088858877145],[10.5099610173653,45.3080610223055],[10.5104420445607,45.3076827046122],[10.5089262836388,45.3033632567332],[10.5096510601852,45.3024953171115],[10.5100642942313,45.3022800314969],[10.5106900149466,45.3021059263907],[10.5109998729491,45.302226327017],[10.5122311672793,45.3017727807826],[10.5133429249456,45.3004338717371],[10.5133979708915,45.2999663425497],[10.5124064111155,45.2992268766515],[10.5119474465866,45.2990709251664],[10.5110506325659,45.2984950784203],[10.5109134273079,45.2982260870294],[10.5113262957402,45.2971862961991],[10.5109399651724,45.2963625969488],[10.5099807983721,45.2958227389843],[10.5096009790152,45.2957515461634],[10.5097968846765,45.2949963606714],[10.5102393393959,45.2943770034448],[10.5107027663727,45.2941531705686],[10.5111649943422,45.2934313235468],[10.511550090574,45.2923128655125],[10.5120674894687,45.2920664515431],[10.512350940121,45.2916154523704],[10.5133178512762,45.291385759459],[10.5146612378391,45.2914474826143],[10.5157655883881,45.2911870285229],[10.5166125271764,45.2906841736406],[10.5182350533537,45.2905366203741],[10.5188149392215,45.290014478851],[10.5185456349199,45.2895322047689],[10.5185217178533,45.289141933496],[10.5187816204094,45.2887669437623],[10.519101593139,45.2885834280849],[10.5194454876913,45.2878530933357],[10.5201731206668,45.2872895295307],[10.5214945769493,45.2869176855564],[10.5223158078428,45.2864151305132],[10.5223005410853,45.2862273628977],[10.5190403389732,45.2835477139878],[10.5192851547776,45.2826089503036],[10.5197555097911,45.282031100088],[10.5217261387313,45.2785181452138],[10.5222613717889,45.2768371968619],[10.5223661829139,45.2757116641746],[10.5236109152774,45.2737821310805],[10.524259184034,45.2731372736],[10.5245080698887,45.2724905133277],[10.5243624268047,45.2720225287451],[10.5246830625004,45.2715700117468],[10.5267478148346,45.2695325922275],[10.530734785333,45.266434889132],[10.534791887189,45.2628651439509],[10.5371570349321,45.2613694596343],[10.5275501119665,45.2462311005126],[10.5224707076727,45.2419262361463],[10.5196888027288,45.2398235679943],[10.5190145380628,45.2391037091466],[10.5330943739094,45.2340907345438],[10.5341822290166,45.2330336787165],[10.5402880398943,45.2263062036342],[10.5440346015461,45.2219968859285],[10.5483779897189,45.2198502495733],[10.5500552137146,45.2187315848364],[10.5518359258272,45.2163806689333],[10.5524531680724,45.2147442139454],[10.554338514472,45.2139241175428],[10.5566646045999,45.2131059791463],[10.5581972267981,45.2127065858905],[10.5594209181016,45.212682437913],[10.5605655357004,45.212061352638],[10.5655701843909,45.2105161656264],[10.5663965535495,45.209870760028],[10.5664167749733,45.2095171325386],[10.5672241967615,45.2076058470722],[10.5677802002239,45.2073213128466],[10.5692596908601,45.2071667410425],[10.5695017089423,45.2069032930834],[10.5715843119884,45.2055908269073],[10.5728050017113,45.2042314561008],[10.5730605246501,45.2029524951496],[10.5732797036738,45.2027229179952],[10.5754184672329,45.2015186915166],[10.5770892460342,45.1999181151392],[10.5784661671824,45.1994963127793],[10.5792491903002,45.1990575372764],[10.5821255510112,45.1965224195925],[10.5826042246171,45.1964169834441],[10.5829838027094,45.1964788967906],[10.5853078217146,45.1943125629313],[10.5908991276312,45.1935598158121],[10.5923920617483,45.1932015146945],[10.5931489468516,45.1920905108979],[10.5944260334624,45.1917655381056],[10.595203540054,45.1913136255756]]}},{"type":"Feature","properties":{"CODICE_CAN":"0095","NOME_COMPL":"Seriola MARCHIONALE","COMUNI":"Castiglione delle Stiviere, Medole, Guidizzolo, Ceresara, Goito, Rodigo, Castellucchio"},"geometry":{"type":"MultiLineString","coordinates":[[[10.6777516678988,45.1599946270629],[10.6790865685252,45.1605255562894],[10.6800960877269,45.1609749467117],[10.6803025496665,45.1603819951371],[10.6808178244798,45.1603088426003],[10.6811549036815,45.1604787242491],[10.681223484907,45.1608522099006]],[[10.6800875069897,45.1609713392121],[10.6800960348402,45.1609751371495],[10.6807619836476,45.1612548981986]],[[10.6246253931824,45.2024930405634],[10.6269558973917,45.2029862112284],[10.6287246338017,45.2051549232208],[10.6330466888867,45.2058472523995],[10.637072104883,45.2041541679313],[10.6388766265649,45.2023172801594],[10.6403333725273,45.2016410413883],[10.6494033068717,45.1981743264127],[10.6478783467202,45.1965992760134],[10.6491047710766,45.1956450381843],[10.6471653144565,45.1941360637919],[10.6488315049975,45.1924154200863],[10.64869011266,45.1919494465939],[10.6479003306118,45.19099762465]],[[10.4505635406118,45.3835610342217],[10.4601061868891,45.3788414385888],[10.4614588566905,45.3758364639655],[10.4642699410053,45.3711288130499],[10.4646285880255,45.3703051013377],[10.4657696333411,45.3662173943969],[10.4665689134489,45.3622510791491],[10.4682607874095,45.3611436415883],[10.4777741197601,45.3559624757707],[10.4836798328989,45.3521062303628],[10.4845054632598,45.3513979059797],[10.4948884648848,45.3408758868189],[10.5095959644157,45.3283141460502],[10.5184213414272,45.3212035376781],[10.5368792827227,45.3085590655624],[10.557631623487,45.2914694434448],[10.5626240634681,45.2875696282618],[10.5667002249741,45.282249423611],[10.5718812915937,45.2759250121985],[10.573350477889,45.2738699108081],[10.5730469921256,45.2734339626705],[10.5693804031625,45.2702262999662],[10.5692460504048,45.2700509513822],[10.569338949976,45.2696038308182],[10.5733585218885,45.2674279246453],[10.5762625220945,45.2660446428317],[10.5752951654308,45.2650176825162],[10.576502814074,45.2644923037728],[10.5773620577418,45.2639545713583],[10.5764359467396,45.2632471479482],[10.5754744874928,45.2622330361854],[10.5766061329486,45.2616475425889],[10.5752515614089,45.2602390438053],[10.5751295294871,45.2593119564071],[10.5733028564683,45.2571640965042],[10.5740025523616,45.2531062889394],[10.5768637842717,45.2456760837453],[10.5803048513958,45.2403640833163],[10.5812970348548,45.2386287157064],[10.5869293283619,45.2302863589368],[10.5927223035207,45.2230949873166],[10.599908910757,45.2187875156123],[10.6056641700717,45.2178207246511],[10.6078940205599,45.2165946946202],[10.6104787511131,45.2131915366049],[10.6117038897822,45.2123339938154],[10.6126533532466,45.2118804523833],[10.6144120615213,45.2104494576114],[10.6155798720261,45.2099985203118],[10.6170086789935,45.2086293135851],[10.6174146865425,45.2076918542015],[10.6194850832309,45.2058562443925],[10.621150407876,45.2049923540447],[10.6246253931824,45.2024930405634],[10.6247659061203,45.2022347234284],[10.6236779032139,45.2009663411275],[10.6236838154957,45.2000805975748],[10.6261324962016,45.1991240357362],[10.6262649597672,45.1988077689577],[10.6262258990008,45.1985010905675],[10.6294811485684,45.1974829486301],[10.6297675584649,45.1972502193934],[10.6298221455723,45.1966849846015],[10.6324793624434,45.1941962783323],[10.6335080830737,45.1937742964801],[10.6391754211831,45.1925327100172],[10.6420520980962,45.1916063258179],[10.6469035482602,45.1912025383216],[10.6481355043766,45.1909343790091],[10.6494690478515,45.1904363120301],[10.6495246860171,45.1901215217496],[10.6488905369455,45.1870583289693],[10.6469734916515,45.1832991450935],[10.6465599692181,45.1813973907393],[10.6483159083293,45.1794071693927],[10.6509021665049,45.1767904445299],[10.6518720993496,45.1748096053202],[10.652609992222,45.1728923029348],[10.6527009785022,45.1726274467646],[10.652602479717,45.1719541782747],[10.6528073858815,45.171933430426],[10.652808799438,45.1714521193496],[10.6544165488832,45.1704805239453],[10.656331027967,45.1696239394265],[10.6564192013583,45.1695297747215],[10.656184445328,45.1690973342938],[10.6566146463057,45.1679496996067],[10.6573711904859,45.1670956178406],[10.6572881605385,45.1666445030487],[10.6574551675569,45.1661594951743],[10.6596112537503,45.1648980012068],[10.6614887075509,45.1642902599703],[10.6638154187495,45.1637276432342],[10.6650778408482,45.1640736328324],[10.6665693194443,45.1636160237417],[10.6678093539058,45.163540754731],[10.6703902241411,45.1630385954993],[10.6738637577275,45.1614658315341],[10.6758573678259,45.1604005562263],[10.677196795337,45.1602737110749],[10.6802802908512,45.1586707547711],[10.6805629463589,45.1579806730087],[10.6793887277358,45.1566832698483],[10.6813949045611,45.1528580623821]],[[10.5691090183941,45.262914621628],[10.5697140703338,45.2623679947709],[10.5714681317586,45.2614064624597],[10.5722482536253,45.2606412216275],[10.5726077407979,45.2592987393838],[10.5730545476275,45.2584809212061],[10.5733028325711,45.2571643848829]]]}},{"type":"Feature","properties":{"CODICE_CAN":"7000","NOME_COMPL":"Scolo CAVATA - AIPO","COMUNI":"Acquanegra sul Chiese, Marcaria"},"geometry":{"type":"LineString","coordinates":[[10.5125581469021,45.1328956360842],[10.5093744506543,45.1293170581924],[10.5091186340407,45.1292565821344],[10.5086832471843,45.1286063542191],[10.5081955699116,45.1283051220462],[10.5079282825175,45.1278094097678],[10.5070969936422,45.1270715198356],[10.5067683940326,45.1265824192022],[10.5073900084498,45.1258202527886]]}},{"type":"Feature","properties":{"CODICE_CAN":"7001","NOME_COMPL":"Canale TARTARO FUGA - AIPO","COMUNI":"Acquanegra sul Chiese"},"geometry":{"type":"LineString","coordinates":[[10.4973430498671,45.1430169321359],[10.4971546106232,45.1424667346779],[10.4974629270192,45.1421930633894],[10.4970982916747,45.1416585152744],[10.4974131836349,45.1409613226347],[10.4967554914721,45.1395552325372],[10.4971427025387,45.1389213970688],[10.4972684588725,45.1383267131419],[10.4977589820216,45.1372056609775],[10.4973382884906,45.136519718518],[10.4959029122893,45.1359081587239],[10.4961766525552,45.1354282010238],[10.4955226932922,45.1347100491228],[10.4942726864433,45.1342191698104],[10.4934091850739,45.1335757938639],[10.4933299691382,45.1332481588969],[10.4935221501476,45.1326770143868]]}},{"type":"Feature","properties":{"CODICE_CAN":"7002","NOME_COMPL":"Vaso PALPICE - AIPO","COMUNI":"Asola"},"geometry":{"type":"LineString","coordinates":[[10.4047922107153,45.2198502446403],[10.4051770700362,45.2194729730397],[10.406169432887,45.2176825112715],[10.4059057241611,45.2145149316631],[10.4065498083233,45.2107437909251],[10.4080832046828,45.2099711375341],[10.4081965393036,45.2097979279929],[10.4089050458421,45.2083260241036],[10.4095840501692,45.2059787970456],[10.4088047262028,45.2050573133985],[10.4050936118661,45.2044656890987],[10.4047122435856,45.2042538004277],[10.4044838410534,45.2035808844463],[10.4045271369685,45.2026326207805],[10.4053178634581,45.2019522721793],[10.4053842493133,45.2017501482679],[10.4050885865338,45.2012890851658],[10.4043209210027,45.2009440537057],[10.4043468880512,45.2002461120619],[10.4040897989332,45.1998336028129],[10.405011158971,45.1985639397213],[10.4056136138571,45.198329571839],[10.4103830339496,45.1988379964314]]}},{"type":"Feature","properties":{"CODICE_CAN":"7003","NOME_COMPL":"Vaso CACCIABELLA - AIPO","COMUNI":"Asola"},"geometry":{"type":"LineString","coordinates":[[10.4068849998674,45.2206428561708],[10.406946791968,45.2196721142969],[10.4063893974563,45.2147375146596],[10.4068460643791,45.2136851881826]]}},{"type":"Feature","properties":{"CODICE_CAN":"7004","NOME_COMPL":"Torrente BRANCHELLO - AIPO","COMUNI":"Asola"},"geometry":{"type":"LineString","coordinates":[[10.3931430056129,45.2523977352133],[10.3932870539947,45.2510620242981],[10.3945673426163,45.250982244612],[10.3944267113966,45.2507785655321],[10.3941590014989,45.2494838395298],[10.3935970001516,45.248907198291],[10.3935000394081,45.2478723667202],[10.3935954778316,45.2476389916425],[10.3943385544488,45.2470047384408],[10.3963881429843,45.246717709535],[10.3979326132676,45.245597299307],[10.3982955693151,45.2449319484425],[10.3982345206682,45.2414138156921],[10.3982939129694,45.2412582813459],[10.3998132236956,45.2403177069561]]}},{"type":"Feature","properties":{"CODICE_CAN":"8233","NOME_COMPL":"Fosso GERRA E SAN VIGILIO","COMUNI":"Castiglione delle Stiviere"},"geometry":{"type":"MultiLineString","coordinates":[[[10.4979601925603,45.3611352638667],[10.4969807851241,45.3609066696353],[10.497410883894,45.3602357418453],[10.4955592813265,45.3566339848033],[10.4946464784538,45.3550026148865],[10.4934586532516,45.3529943697136],[10.494353642753,45.3527325906187],[10.4939598507014,45.3520161105095],[10.49458413904,45.3518650438995],[10.4912370714464,45.3463465116058],[10.4902381682074,45.3467813681113],[10.4897082191048,45.3461157269979]],[[10.4953255940782,45.3562233104719],[10.4932484569205,45.3567845214227],[10.4910594354524,45.3530864535092],[10.4898202522777,45.3504661670774],[10.4881163139679,45.3477370958688]],[[10.50377739322,45.3794326317737],[10.5036950784728,45.3793863091087],[10.5038108633484,45.379267499415],[10.498115631746,45.3611726972647],[10.49795972996,45.3611337808723]]]}},{"type":"Feature","properties":{"CODICE_CAN":"0074","NOME_COMPL":"Seriola ASOLANA","COMUNI":"Asola"},"geometry":{"type":"LineString","coordinates":[[10.3728541355567,45.2409457076405],[10.3734420227635,45.2402143135191],[10.3742519665026,45.2384019406318],[10.3750417945342,45.2342112262086],[10.3755999538703,45.2326964026344],[10.3759193800588,45.2309315981682],[10.3760465959419,45.2287905768784],[10.375879864174,45.2264491782744],[10.3756480167931,45.2255751558761],[10.3752471762625,45.225009396397],[10.3753073185577,45.2241157682631],[10.3764900400152,45.2217599101437],[10.377055815645,45.2201519456696],[10.3805038391723,45.2197521051653],[10.3808072703601,45.2194848831998],[10.3807560023052,45.2182298496149],[10.3811217588474,45.2170175463953],[10.3808841481463,45.2149808552522],[10.3795529552177,45.2098062726944],[10.3797362351557,45.2086545634624],[10.3796547592663,45.2076051024346],[10.3797575786357,45.2059734201352],[10.3800493235805,45.2049979381385],[10.3805197621739,45.2048916273858]]}},{"type":"Feature","properties":{"CODICE_CAN":"0083","NOME_COMPL":"Canale TARTARO FABREZZA","COMUNI":"Castel Goffredo, Casaloldo, Asola, Piubega, Mariana Mantovana, Redondesco, Marcaria"},"geometry":{"type":"MultiLineString","coordinates":[[[10.5293717850226,45.1538305854869],[10.5309649377497,45.1529956424902]],[[10.4702333642455,45.3337716214819],[10.4717390920162,45.3321835892002],[10.4761774125706,45.3288064081653],[10.4773639476171,45.3250976506736],[10.476312427512,45.3189323562402],[10.4746910788205,45.3144692350663],[10.4736906129943,45.3107619498395],[10.4729135438714,45.3097050257288],[10.4730550112881,45.3089125005109],[10.4735815205119,45.3083912790465],[10.4734149609516,45.3071740318817],[10.4739727993956,45.3062999228744],[10.4743942774103,45.3058943708819],[10.4774118015818,45.3035690231831],[10.4805013055766,45.3024620582822],[10.4805123206773,45.3023666510527],[10.4802006688539,45.3012846639987],[10.4795263288317,45.3002558756321],[10.4793636599256,45.2992063366784],[10.4793096423201,45.2971302514676],[10.479509927427,45.2962540500316],[10.4790079384318,45.295390800586],[10.4791244857031,45.2946824231682],[10.4787028670066,45.2940400753861],[10.4787282370611,45.293458627867],[10.4785726413355,45.29318437256],[10.4790042634052,45.2926548251933],[10.478958617119,45.2912097382145],[10.4788000100269,45.2910284301243],[10.4789362833625,45.2905598649577],[10.4787894807566,45.290104491198],[10.4788470336711,45.2897226847149],[10.4791616637934,45.2893661290883],[10.4793328398047,45.2845320449738],[10.4795276294633,45.2837197650414],[10.4792803374481,45.2825130937783],[10.4796767603481,45.2811523308178],[10.4795865088901,45.2792386597656],[10.4794389887334,45.2787547155016],[10.4795590183337,45.2781815670958],[10.4801393900407,45.2776691410659],[10.480607878947,45.2770057374618],[10.4805051291904,45.2759452627933],[10.4811992828973,45.2742472496262],[10.4813742924308,45.2727564774901],[10.4814241273634,45.2720794450578],[10.4812154411651,45.2714002726019],[10.4818351437632,45.2703967765927],[10.4815704892875,45.2701035681943],[10.4815646832434,45.2698410609789],[10.4812299761492,45.2696463569727],[10.4811938813256,45.2693744750561],[10.4808246374857,45.2691461182533],[10.4807418420925,45.2687230004495],[10.4803849337877,45.2682274798767],[10.480130216085,45.2664088213354],[10.479719408319,45.2657358280529],[10.4797649728847,45.2652095617338],[10.4801673265166,45.2649906515477],[10.48002256687,45.2646907776544],[10.480222064262,45.2642823595172],[10.480024223685,45.2640765789603],[10.4799182918512,45.2636182733381],[10.4802175495498,45.2627637693834],[10.4801471221856,45.2602496612069],[10.4797796485148,45.2595399267702],[10.4791345650459,45.2587948323193],[10.4781910376792,45.2569954558497],[10.4784852492722,45.2558594255206],[10.4775689657118,45.2538793776155],[10.4773347620299,45.2524551961964],[10.4780300937484,45.2515745177366],[10.4784733550873,45.2507256770222],[10.4826537999283,45.2504500076321],[10.4849376904093,45.2492057037927],[10.48573074994,45.2489045827689],[10.4872501348209,45.2478966776637],[10.4902934622096,45.2463065637207],[10.4932023719657,45.2453826059179],[10.4942438116699,45.2449235232592],[10.4921011319826,45.2423389525338],[10.4910767132688,45.2406804066025],[10.4910158841887,45.2402882284664],[10.4908329569901,45.2343597006423],[10.4913177181205,45.234070249389],[10.4925911473873,45.2328308631257],[10.4928876341502,45.2317445397328],[10.4942898507587,45.2303160362522],[10.4943675719248,45.229618568623],[10.4939382159397,45.2287969821703],[10.4945495686993,45.2276894123082],[10.4927118089205,45.2252094325311],[10.4920374671665,45.2245537592499],[10.4920293870173,45.2241461539525],[10.4925880153114,45.2229123385641],[10.4936748821804,45.2218324085412],[10.4935072034664,45.2203013674938],[10.4945476698964,45.2188724717123],[10.4956658578762,45.2189189358747],[10.4984370721959,45.2187072174865],[10.5002067596717,45.2179485175564],[10.5040765331384,45.2166078542733],[10.5053420108018,45.2159124123321],[10.5016592175518,45.2122250840761],[10.4903387145567,45.200069568734],[10.4902032820299,45.2000203546788],[10.4879990259802,45.2007494565838],[10.4868354263743,45.1983213911577],[10.4868564609733,45.1970952392065],[10.4853391200032,45.1964040227151],[10.4847092689691,45.1962764550783],[10.4841508695447,45.1950019762094],[10.4837211745046,45.1944611593792],[10.4831080362866,45.1932708512694],[10.4841658961422,45.1923196821012],[10.4877611884779,45.1898848297128],[10.4925437970902,45.1861143895052],[10.4939688767762,45.185464850076],[10.4954499133278,45.1851862632573],[10.4959168632857,45.1843388301123],[10.4966276270157,45.182377721464],[10.4975171507292,45.180983159141],[10.4979817253401,45.1807466221071],[10.5006632790282,45.1800578193756],[10.5047276087816,45.1780122416446],[10.5051932230056,45.1774034769736],[10.5063426967822,45.1764724995867],[10.5086121087472,45.175120866682],[10.5099653798115,45.1740114957796],[10.5104946367163,45.1734215594952],[10.5139225455038,45.1710375147493],[10.5146329612627,45.1707267526018],[10.5165231155974,45.1693427188951],[10.5166675788507,45.1691390294292],[10.5161517265606,45.1679790412386],[10.5160989341691,45.1676042972349],[10.5164191128429,45.1660196607834],[10.516871144627,45.1655473802703],[10.5155622852907,45.1652493840037],[10.5130672896222,45.1652185781365],[10.5132561142524,45.1644138000461],[10.5122272023274,45.1641861124985],[10.5121483211117,45.1640571170768],[10.5134975761885,45.162466397646],[10.5156000263345,45.161504913482],[10.5161559845504,45.1608715627406],[10.5265867659261,45.1564924447368],[10.5271363626111,45.1560784215612],[10.5277694451662,45.1548994471674],[10.5281515888439,45.1544985721426],[10.5293717850226,45.1538305854869],[10.5308566340378,45.1542760979018],[10.5313406348147,45.1546170903996],[10.53193194561,45.1545471891699],[10.5324694994809,45.1541711205696],[10.5325610330249,45.1539183126518],[10.5335212974211,45.1535367852091],[10.5367236279331,45.1511554253777],[10.5385145267926,45.1499822927751],[10.5445174249747,45.1488734545378],[10.5498535785222,45.1475799948137],[10.5513898651203,45.144824832917],[10.5516359455588,45.1445489247953],[10.5519626049742,45.1444325450663],[10.552310557787,45.1439848175918],[10.552329396478,45.1435629992459],[10.5520926230706,45.1431470374354],[10.551191551797,45.1420365553454],[10.5515703951519,45.1415239909261],[10.5521082409098,45.1412854549538],[10.5519995866037,45.1404428932219],[10.5523567860027,45.1398368866515],[10.5519589561043,45.1393135616729],[10.5519044244109,45.1387787204286],[10.5513092477465,45.1384364046253],[10.550659289857,45.1384063080662],[10.5499985657919,45.1379397570605],[10.5495015157284,45.1379429548658],[10.5491623989331,45.1372580344681],[10.5484952218694,45.1372242110451],[10.548278225816,45.1367814514475],[10.5482893220689,45.1350263341291],[10.548731352582,45.1328982672188],[10.5482055762155,45.1319336717846],[10.547802556923,45.1299099449846],[10.548045567372,45.1296692560033],[10.5482994572418,45.1289599093978],[10.5478710844117,45.1275940241043],[10.5479898736667,45.127135131861],[10.5488746791685,45.1260461804537],[10.5497822783425,45.1259705020171],[10.5503528482984,45.12608306718],[10.5531934220681,45.1258231944972],[10.5543428938873,45.1252534236151],[10.5566792332307,45.1249986996134],[10.5589436453659,45.1249234818322],[10.560905351158,45.1251202548007],[10.5610772722838,45.1249886619695],[10.5610424200836,45.1244677703255],[10.5613828104041,45.1244156166436],[10.5619290611606,45.1238010970092],[10.5622879620112,45.1236389975945],[10.5617778260328,45.1231652069239],[10.5617390063575,45.1228102087018],[10.5628627076478,45.1225117430692],[10.5633069916714,45.1225199530896],[10.5640226667112,45.1220227105084],[10.5635892523999,45.1220159351309],[10.5635998402352,45.1219109963456],[10.5641337202494,45.1217512584884],[10.5649227039189,45.1212021892922],[10.5651931570218,45.1212508804894],[10.5655934004816,45.1216169366302],[10.5660166657838,45.1213491490712],[10.5663942225461,45.1212857549846],[10.567694447461,45.1214404513139],[10.5695903878822,45.1213905939024],[10.5698643973552,45.1209727997471],[10.5711672654657,45.1208584120333],[10.5714953201962,45.1203212209185],[10.5725845085587,45.1196090964018],[10.5715516459825,45.1193776945628],[10.5714472184801,45.1190888884856],[10.5712571983187,45.1190002798317],[10.5712588185804,45.1184582415726],[10.5716908692084,45.1182867071587],[10.571897476063,45.1180555660771],[10.5724226444927,45.1179223618096],[10.5717393765483,45.1174503134263],[10.5717931194175,45.1171358932297],[10.5723327582654,45.1166909719621],[10.5718705670756,45.1163212947113],[10.5718377623365,45.1159742507831],[10.5715989212321,45.1157660126053],[10.5714829919199,45.1153271470496],[10.571045751403,45.1147506551475],[10.5711662190078,45.1145093339266],[10.5715067731079,45.1143358247578],[10.5714878850352,45.1141704479316],[10.5707677786197,45.1140330645173],[10.5694510462921,45.114216510805],[10.5683949279866,45.1139734761331],[10.5673673967605,45.114538053885],[10.566727600251,45.114488334041],[10.5663708248524,45.1146824152418],[10.5658924725749,45.114713435117],[10.5657275143964,45.1140943808676],[10.5649038308047,45.113558942238],[10.5641890807569,45.1123982610221],[10.562860939641,45.1119469800722],[10.5611973262795,45.1108852102108]]]}},{"type":"Feature","properties":{"CODICE_CAN":"2076","NOME_COMPL":"Vaso TURCA - Rio SANT'ELENA","COMUNI":"Asola, Casalromano"},"geometry":{"type":"MultiLineString","coordinates":[[[10.3800205741129,45.2050805380791],[10.3780066234681,45.2040992428304]],[[10.3715546469536,45.2294125387145],[10.3715420758592,45.2294119087965]],[[10.3747387297818,45.2207115762171],[10.3767284472686,45.221006413331]],[[10.3829588524991,45.1905996222305],[10.3830388609336,45.1905824043551],[10.3828590507106,45.1900096455324],[10.3828499034139,45.1899745562956],[10.3825512506016,45.1886053638948],[10.3824761480221,45.1879022682294],[10.3826766234845,45.1879585073302],[10.3878727819429,45.1877207767377]],[[10.3830357521836,45.1905823501908],[10.3831778634091,45.1905438472885],[10.3827164359199,45.1886736108024],[10.3827044127197,45.188177213209],[10.3826437310353,45.1878193342343],[10.3825770406316,45.187213256323],[10.383712668972,45.1873925959254],[10.3850749358872,45.1872657317987],[10.3860657921753,45.1873732424979],[10.3873530033675,45.1868334764245],[10.3876501287521,45.1862183816352],[10.3874998509595,45.1848501175354],[10.387597739635,45.184062734913]],[[10.387619508075,45.1840618870794],[10.3882830404654,45.1836255729887],[10.390868997752,45.1832570833833],[10.3915673247543,45.1826634707554],[10.3917824936866,45.1820914984441],[10.3924460213423,45.1809852156463],[10.3928864053112,45.1805733272661],[10.3928735330015,45.1802486226825],[10.3932172271559,45.1792069971172],[10.3936831602956,45.1784811832854],[10.3942714428359,45.1763811331769],[10.3946153849006,45.1758728436421],[10.3946335029572,45.1755049648061],[10.3949867446699,45.1754452321373],[10.395181557356,45.1752648639782],[10.3951998285695,45.175047908616],[10.394596489751,45.1744717721717],[10.3948609589084,45.1742017928845],[10.3954378560241,45.1741780697007],[10.3955520080213,45.1740266295197],[10.3955889540796,45.1736093847261],[10.3953436445678,45.1733840085568],[10.3952966843382,45.1730245202845],[10.3959138048438,45.1726299062459],[10.3958714277757,45.1719373031704],[10.3961464137249,45.1715852905579],[10.3965160773382,45.1712806770968],[10.3975410784568,45.1717516118596],[10.3982357604904,45.1717264320015],[10.3984244309037,45.1716067506352],[10.3989869920253,45.1706419013257],[10.3992191415123,45.1704973463145],[10.4027734309484,45.1696608016586],[10.4027617191218,45.1691838614835],[10.4031474656302,45.1688280586797],[10.4032869587723,45.1688083402528],[10.4038653602526,45.169431338644],[10.4040314047635,45.1694563012289],[10.4055325592678,45.1689359948123],[10.4062163599536,45.1686552672281],[10.4062186145467,45.1682299140467],[10.4057666793491,45.1677996047103]],[[10.3705536199963,45.2406343577814],[10.3709250832582,45.239820139664]],[[10.373611922405,45.2397588915282],[10.3709250832582,45.239820139664],[10.3700322467838,45.2343721279684],[10.3708425588794,45.2319045420671],[10.3698209247246,45.2318844486948]],[[10.3698467615828,45.2318888773454],[10.3697836006483,45.2311316592986],[10.3697508621507,45.2305716515504],[10.3702575719358,45.2304974501028],[10.3704123873857,45.2299436691915],[10.3714258786573,45.2298881838842],[10.3717361546634,45.2284578048303],[10.3731788062296,45.2283840234272],[10.3731812378999,45.2282587747247],[10.3716959867065,45.2283233976677],[10.3716580853637,45.2278597124945]],[[10.3716753289112,45.2278734491038],[10.3716980468093,45.2256653628593],[10.3728868767118,45.2256395167902]],[[10.372885554168,45.2256439468962],[10.3737808898166,45.2255640846567]],[[10.3737789791177,45.2255638896773],[10.3741028454368,45.2240014572009],[10.3742702078002,45.2239508690545],[10.3747749916279,45.2225250641377],[10.3743942786478,45.2223143957526],[10.3747387297818,45.2207115762171],[10.3743467607394,45.2175915676815],[10.3743183197257,45.2155722678113],[10.3743824156327,45.2148760533173],[10.3749635237142,45.2129827860148],[10.3751781902726,45.2129420945292],[10.3748141834646,45.2112602669596],[10.3747581673942,45.2097747883168],[10.3743654767392,45.208579162184],[10.3767056968998,45.2069801148443],[10.376617917537,45.2067817063242],[10.3769204529336,45.2062500554874],[10.3773880350898,45.2046486745868],[10.3780066234681,45.2040992428304],[10.3751477143235,45.2026810853591],[10.3753926708575,45.2024316554993],[10.3764132497082,45.1996737408337],[10.3772727498689,45.1978094978357],[10.3781068226931,45.1979871655855],[10.3788181408245,45.1958313643243],[10.3802669838502,45.1946271863212],[10.378960337426,45.1931309630666],[10.3816668065512,45.1925115659388],[10.3806602367541,45.1913738707647],[10.3823463972715,45.1907667928685],[10.3829588524991,45.1905996222305],[10.3863625731261,45.1907884882276],[10.3864210158644,45.1897787038876],[10.3895402064581,45.1897642436366],[10.3897985190243,45.1884469557996],[10.3904489146755,45.1872187590213],[10.3906743003895,45.1862538726364],[10.391690431981,45.184035603303],[10.3916170255045,45.1825516361645]]]}},{"type":"Feature","properties":{"CODICE_CAN":"8228","NOME_COMPL":"Fosso GORGO","COMUNI":"Volta Mantovana"},"geometry":{"type":"MultiLineString","coordinates":[[[10.6428128439823,45.3290708249898],[10.6456475966098,45.3290141951199],[10.6469729970381,45.328666341871],[10.6477012661279,45.3286199714652],[10.6483098714397,45.3281767780391],[10.6495307019622,45.3276602146744],[10.6496360499058,45.3276586918809],[10.6496798587084,45.3281300785709]],[[10.6428128146957,45.3290708272115],[10.6420226281861,45.3292062885976],[10.6411423945722,45.3295725818264],[10.6397055879371,45.3293176322334],[10.6371409444746,45.3293551602641],[10.636958689872,45.3292640726412],[10.63662965217,45.329761582128],[10.6336468867679,45.3290589598807],[10.6308334625748,45.3282193029217],[10.6289842772376,45.3281628182087],[10.626916561653,45.3277602566794],[10.6289337235566,45.3261729390194],[10.6314121010404,45.3239769491712],[10.6322052429253,45.3220076881962],[10.6324389169292,45.3217463544367],[10.6361840465445,45.3204537629474],[10.636360989522,45.3194754884298],[10.6363732344883,45.3173822280967]],[[10.6496798587084,45.3281300785708],[10.6511579525607,45.3280050108408],[10.6523137208383,45.3273034182981],[10.6525868147789,45.3268538910111],[10.6555896295356,45.3266692599507]]]}},{"type":"Feature","properties":{"CODICE_CAN":"0101","NOME_COMPL":"Fossa REDONE","COMUNI":"Desenzano del Garda, Pozzolengo"},"geometry":{"type":"LineString","coordinates":[[10.620572025661,45.38792417647],[10.61946496594,45.3889717543531],[10.6191880905752,45.3894988312853],[10.6190168695613,45.3905210007289],[10.6194213372777,45.3910528406283],[10.620666240304,45.3917783964648],[10.6210308368561,45.3924612602928],[10.6220764192884,45.3956354588932],[10.6221544812394,45.3965745521819],[10.6220526989352,45.3969270135072],[10.621787014701,45.3972388238999],[10.6200380859159,45.398537198688],[10.6172203717646,45.4011308157421],[10.6146197683047,45.4022479585364],[10.6135233635977,45.4029496275286],[10.612520336392,45.4032682577034],[10.6087578771212,45.4032426680971],[10.607422122826,45.4034871445538],[10.6053207442463,45.4035669278296],[10.6040659919668,45.4039785682592],[10.6025271333755,45.4047177791629],[10.6020863376217,45.4047776958311],[10.6009835994156,45.4048110812868],[10.5995736175749,45.4043614038577],[10.5981389356954,45.404166599729],[10.5972848831847,45.404361228305],[10.5958796315439,45.404438138475],[10.5946211449841,45.4043590241174],[10.5940304309905,45.404152370027],[10.59307006998,45.4041365245243],[10.591930089691,45.4035686039254],[10.591224825002,45.402748416152],[10.5908936199256,45.402545290844],[10.5901490580823,45.4024732882844],[10.5888567805603,45.40263814258],[10.5868722709571,45.4034724428708],[10.5856185051652,45.4046895011612],[10.5853052851632,45.4078956222079],[10.5849369116849,45.4085454599678],[10.5846792058945,45.4094867025533],[10.5847974340472,45.4100760544866],[10.5856807662878,45.4107407383638],[10.5860850130775,45.4116872795768],[10.5864546906609,45.4121728432564],[10.5879946492737,45.4134050462656],[10.5889879673613,45.4135939664159],[10.5904039046371,45.4144886162261],[10.5921339682425,45.4150651391141],[10.5933897045916,45.4150842507385],[10.5946586639516,45.4148034380844],[10.595166588177,45.4149757142208],[10.5964060625986,45.4145303979825],[10.5970300772148,45.4147097849444],[10.5978087268281,45.415410880615],[10.6000770033592,45.4153381499834],[10.6007552635719,45.4152007049774],[10.6014323761264,45.4153009805796],[10.6021978511505,45.4151609131841],[10.6037337902187,45.4143877628042],[10.6052188051601,45.4145228689458],[10.6105081564541,45.4139944975306],[10.6134513257838,45.4133812244079],[10.6139667233384,45.4133954210076],[10.6146165525125,45.4122283103342],[10.616006082879,45.412371154859]]}},{"type":"Feature","properties":{"CODICE_CAN":"0101","NOME_COMPL":"Scolo REDONE SUPERIORE","COMUNI":"Monzambano, Ponti sul Mincio"},"geometry":{"type":"LineString","coordinates":[[10.6557220103262,45.4102374107144],[10.6587373587127,45.4091284336109],[10.6612689131316,45.4088083615401],[10.6631950424766,45.4074864465701],[10.6645772590118,45.4069220722786],[10.6656493386756,45.4063241135738],[10.6662540306954,45.4058635831566],[10.6662870508012,45.405672624115],[10.6673413547907,45.4051534625074],[10.668577478923,45.4048796113464],[10.6696098911181,45.4042495424858],[10.6720845708222,45.4038620620164],[10.6750763250587,45.4041610424714],[10.6789392708758,45.4049400473761],[10.6812986131425,45.4072815309982],[10.6819336989438,45.4075878191871],[10.6836709841919,45.4075349881859],[10.6841649223837,45.4067331386884],[10.6844555484761,45.4066308895482],[10.6852371549798,45.4064071039464],[10.6874922767026,45.40621258193],[10.6888341397368,45.4061873271515],[10.6898151586746,45.4064105266513],[10.6913256635602,45.4061234121177],[10.6919682155937,45.4065731223297],[10.6925309487364,45.4067223944242],[10.6936004502893,45.4063121230885],[10.6940375668524,45.4063056347008],[10.6966254194301,45.4066399790248],[10.699670565107,45.4066318055229],[10.7007854944921,45.4064585131891],[10.7013464858098,45.4062340386629],[10.7028158130051,45.4062811802346],[10.7043249349987,45.405950689825],[10.7059546605476,45.4050402776981],[10.7061397008545,45.4048159965072],[10.7064740875691,45.4036926187172],[10.7074192753949,45.402848872253],[10.7069175334552,45.40248506457],[10.7061177552226,45.402293984514],[10.7053728834157,45.4009650095605],[10.7053070892277,45.4005066509216],[10.7046332049964,45.4001006508398],[10.7041714755402,45.3992663949351],[10.7040897377637,45.3985919179689],[10.7038596442516,45.3980128563849],[10.7043895495465,45.3975608199737],[10.7062793646469,45.3974854847602],[10.706216576711,45.3959523158829],[10.7063183170536,45.3958865043874],[10.7051720969608,45.3954360765872],[10.7050641996706,45.3950237975412],[10.7053754908272,45.392688178397],[10.705656198239,45.392180059317]]}},{"type":"Feature","properties":{"CODICE_CAN":"0101","NOME_COMPL":"Fossa REDONE SUPERIORE","COMUNI":"Lonato del Garda, Solferino, Cavriana, Pozzolengo"},"geometry":{"type":"LineString","coordinates":[[10.5416039720315,45.3986153828572],[10.5430079566632,45.3975483789065],[10.5446794913047,45.3965354301251],[10.5459025991057,45.3963458102352],[10.5464126189968,45.3965312075935],[10.5470957964427,45.3965604167895],[10.5488331052312,45.3962099579152],[10.5490193698456,45.3960343599655],[10.5492913889966,45.3952518476133],[10.5497551945013,45.3947455701147],[10.5510010147021,45.3938921459449],[10.5525484133218,45.3923423219726],[10.5526667091181,45.39217725725],[10.5525276060994,45.3915830108817],[10.5526524306897,45.3911582495107],[10.5539021484771,45.3909489531964],[10.5551826472356,45.3913642047286],[10.5562137069468,45.3903982666064],[10.5574362539068,45.3882085886645],[10.558898572604,45.3865540723642],[10.5602708028862,45.3858430478714],[10.5645157436741,45.3851503866331],[10.5656623706693,45.3846731493204],[10.5675624662761,45.3835480280065],[10.5667995374551,45.3823700419237],[10.5690135538247,45.3807811218544],[10.5700891978242,45.3802086650905],[10.5716100413785,45.3799473717772],[10.5718617072359,45.3796746860332],[10.5721664362666,45.3795935707709],[10.5729574573284,45.3795826811497],[10.5749269588545,45.3802478302046],[10.5772630057187,45.380600198332],[10.5786509067164,45.3804656241284],[10.5789560378539,45.3806440890629],[10.580503337519,45.3808438150361],[10.5809758910771,45.3811545672088],[10.5814840006494,45.3812725225496],[10.5825459126499,45.3824116129033],[10.5838729633112,45.3830277967411],[10.5856616183605,45.3835606315386],[10.5870859996974,45.3837523606153],[10.5906069263898,45.3849917585745],[10.5929631589384,45.3853242629082],[10.594524600051,45.3852928389971],[10.5951869773296,45.3850720488446],[10.5960206012267,45.385118082289],[10.597365832668,45.3858876971551],[10.5978384321421,45.3866791339675],[10.5980120861398,45.3876529209022],[10.5983216434268,45.3881810547161],[10.6004854122237,45.3903775223058],[10.6019189811076,45.3924187778849],[10.6028517910659,45.39272393382],[10.6036131450516,45.3927759228255],[10.6046452361723,45.3924769134249],[10.6050541222333,45.39192911022],[10.605785146783,45.3917391379837],[10.6067707903134,45.3910234643065],[10.6073611131851,45.3911338123244],[10.6074661871432,45.3912747256402],[10.6072625679931,45.3917318989386],[10.6077344015041,45.3927749780882],[10.610070944417,45.3922895895039],[10.6124811179456,45.3923947891845],[10.6133489053732,45.3921100288143],[10.614654023127,45.3896933654811],[10.6151223924005,45.3894810798357],[10.6156417963132,45.3890110005231],[10.6159846763316,45.3881967514039],[10.6167870502659,45.3881802441326],[10.618100185424,45.3885293031282],[10.6194429409834,45.3883803689055],[10.622008602007,45.3872360278236],[10.6228075528128,45.3870622947223],[10.6242923619987,45.3870847317154],[10.6252177741572,45.387400262732],[10.6267825104949,45.3873985168784],[10.6279652149202,45.3878757463472],[10.6306656462209,45.3884061483985],[10.633779588078,45.3893266954782],[10.6360400633037,45.3905077331126],[10.6386323723178,45.3928603456937],[10.6392971871543,45.3936328950405],[10.6400624461915,45.3949795035281],[10.6407713323585,45.3953431459813],[10.6409285651138,45.3958565684064],[10.6411820070804,45.3961677311473],[10.6437712662484,45.398516107535],[10.6452725906714,45.4003188772784],[10.6452482748649,45.4009242472561],[10.6445974967497,45.4025514177228],[10.6446006234324,45.404582857941],[10.6450464342248,45.4057410451352],[10.6464284756845,45.4076296262009],[10.6475549521698,45.4088267500446],[10.6489898999762,45.4098881700638],[10.6525785504658,45.4108229271456],[10.6532715425801,45.4108719151085],[10.6542590384135,45.4107198765061],[10.6557220103262,45.4102374107144]]}},{"type":"Feature","properties":{"CODICE_CAN":"2067","NOME_COMPL":"Scolo CALDONE","COMUNI":"Volta Mantovana, Goito"},"geometry":{"type":"MultiLineString","coordinates":[[[10.6362702737299,45.3174514062231],[10.6372986880604,45.316627698877],[10.6375582083943,45.3162718411003],[10.6399039681519,45.3099187750404],[10.6398512193929,45.3085585820187],[10.639772101623,45.3083120296116],[10.6397326596785,45.3081891169661],[10.6399265718239,45.3067302077351],[10.6392404742416,45.3058549711629],[10.6389189251333,45.304993528566],[10.6389171638759,45.3043921451583],[10.6394570998902,45.3043269985493],[10.6404528025165,45.3035746238563],[10.6413322602189,45.3034095603466],[10.6411308099973,45.3024301790002],[10.6402568544815,45.301586200473],[10.6391571304603,45.3000167085323]],[[10.6397714788593,45.3083121437928],[10.639772101623,45.3083120296116],[10.6404703763051,45.3081840013818],[10.6410254569813,45.3080436453643],[10.6411053428113,45.3079438611592],[10.6408199771429,45.3071692560506],[10.6421943107298,45.3072481351091],[10.6422965383299,45.3065847646047],[10.64256669011,45.3061318248516],[10.6425522993722,45.3056336598278],[10.6426939746677,45.3054447322314],[10.6425918655544,45.3049659988693],[10.6436412459903,45.3047484347681],[10.6438171408114,45.3037712217392],[10.643705499696,45.3030583655483],[10.6423046552673,45.3013575801942],[10.6413148074807,45.3023296220169],[10.6404667119297,45.3013314373814],[10.6406047568915,45.3012399027628],[10.6403760265384,45.3009609076509],[10.6401005204366,45.3008772606734],[10.639276994918,45.2999643718351],[10.6391599811892,45.3000154638145],[10.6389435352675,45.2997682587863],[10.6378872264597,45.2979751643073],[10.6370202916483,45.2969026478099],[10.6334485434654,45.2939083351855],[10.6319809947871,45.2913528832792],[10.6305699812238,45.2896228078261],[10.6381874928552,45.2838183936602],[10.6494225583031,45.2755517013379],[10.6631634240999,45.2606370650111],[10.6640194688635,45.2603424043166],[10.6641852074959,45.2592312712558],[10.6644106143651,45.2589108289115],[10.6659357473638,45.2579944473834],[10.6680380623525,45.257432383707],[10.6683562088382,45.2555417912044],[10.6691549500121,45.2550019102786],[10.6700126733578,45.2538868016574],[10.6710763387312,45.2533851989563],[10.6733065189192,45.2527589378227]],[[10.642432844343,45.3014024588215],[10.6427565371013,45.3011486162005],[10.6438613808677,45.3007686702828],[10.6447322285107,45.3001672327204],[10.6462729152454,45.2995979884866]]]}}]}